NORAD_CAT_ID,OBJECT_NAME,OBJECT_TYPE,EPOCH,MEAN_MOTION,ECCENTRICITY,INCLINATION,RA_OF_ASC_NODE,ARG_OF_PERICENTER,MEAN_ANOMALY,BSTAR,MEAN_MOTION_DOT,MEAN_MOTION_DDOT,TLE_LINE0,TLE_LINE1,TLE_LINE2,SEMIMAJOR_AXIS,PERIOD,APOGEE,PERIGEE,DECAYED
52584.0,STARLINK-3922,PAYLOAD,2024-06-01 05:47:04,15.08840918,0.0001353,53.2169,141.1409,93.4484,266.6663,1.1486e-05,-1.05e-06,0.0,0 STARLINK-3922,1 52584U 22051BA  24153.24102548 -.00000105  00000-0  11486-4 0  9996,2 52584  53.2169 141.1409 0001353  93.4484 266.6663 15.08840918114067,6917.878,95.437,540.679,538.807,0.0
52584.0,STARLINK-3922,PAYLOAD,2024-06-02 05:37:51,15.08835499,0.0001409,53.2174,136.6799,96.4268,263.6885,1.3259e-05,-7.7e-07,0.0,0 STARLINK-3922,1 52584U 22051BA  24154.23462923 -.00000077  00000-0  13259-4 0  9990,2 52584  53.2174 136.6799 0001409  96.4268 263.6885 15.08835499114217,6917.894,95.438,540.734,538.784,0.0
52584.0,STARLINK-3922,PAYLOAD,2024-06-03 05:28:39,15.08838019,0.0001297,53.2172,132.2198,94.4377,265.6763,7.0415e-05,8.33e-06,0.0,0 STARLINK-3922,1 52584U 22051BA  24155.22822946  .00000833  00000-0  70415-4 0  9991,2 52584  53.2172 132.2198 0001297  94.4377 265.6763 15.08838019114368,6917.886,95.438,540.649,538.854,0.0
52584.0,STARLINK-3922,PAYLOAD,2024-06-03 15:00:57,15.08842469,0.000134,53.2177,130.4359,94.9787,265.1358,9.9504e-05,1.296e-05,0.0,0 STARLINK-3922,1 52584U 22051BA  24155.62566647  .00001296  00000-0  99504-4 0  9992,2 52584  53.2177 130.4359 0001340  94.9787 265.1358 15.08842469114427,6917.873,95.437,540.665,538.811,0.0
52584.0,STARLINK-3922,PAYLOAD,2024-06-03 22:57:53,15.08834675,0.0001549,53.2192,128.9518,100.3837,259.733,7.7235e-05,9.41e-06,0.0,0 STARLINK-3922,1 52584U 22051BA  24155.95687331  .00000941  00000-0  77235-4 0  9995,2 52584  53.2192 128.9518 0001549 100.3837 259.7330 15.08834675114409,6917.897,95.438,540.833,538.69,0.0
52584.0,STARLINK-3922,PAYLOAD,2024-06-04 03:44:03,15.08842732,0.0001552,53.2193,128.0602,101.6834,258.4332,-4.657e-05,-1.029e-05,0.0,0 STARLINK-3922,1 52584U 22051BA  24156.15559274 -.00001029  00000-0 -46570-4 0  9990,2 52584  53.2193 128.0602 0001552 101.6834 258.4332 15.08842732114502,6917.872,95.437,540.811,538.663,0.0
52584.0,STARLINK-3922,PAYLOAD,2024-06-04 08:30:12,15.08837305,0.0001428,53.2184,127.1664,95.4929,264.6226,9.4522e-05,1.217e-05,0.0,0 STARLINK-3922,1 52584U 22051BA  24156.35431162  .00001217  00000-0  94522-4 0  9994,2 52584  53.2184 127.1664 0001428  95.4929 264.6226 15.08837305114531,6917.889,95.438,540.742,538.766,0.0
52584.0,STARLINK-3922,PAYLOAD,2024-06-05 05:10:13,15.08841863,0.0001556,53.2183,123.2995,104.6888,255.4277,6.9434e-05,8.17e-06,0.0,0 STARLINK-3922,1 52584U 22051BA  24157.21543069  .00000817  00000-0  69434-4 0  9999,2 52584  53.2183 123.2995 0001556 104.6888 255.4277 15.08841863114665,6917.875,95.437,540.816,538.663,0.0
52584.0,STARLINK-3922,PAYLOAD,2024-06-05 06:45:36,15.08842416,0.0001362,53.2172,123.0008,86.607,273.5078,6.533e-05,7.52e-06,0.0,0 STARLINK-3922,1 52584U 22051BA  24157.28167078  .00000752  00000-0  65330-4 0  9997,2 52584  53.2172 123.0008 0001362  86.6070 273.5078 15.08842416114679,6917.873,95.437,540.68,538.796,0.0
52584.0,STARLINK-3922,PAYLOAD,2024-06-05 14:42:31,15.08845321,0.0001366,53.2174,121.5141,87.9868,272.1281,8.8759e-05,1.125e-05,0.0,0 STARLINK-3922,1 52584U 22051BA  24157.61286803  .00001125  00000-0  88759-4 0  9997,2 52584  53.2174 121.5141 0001366  87.9868 272.1281 15.08845321114652,6917.864,95.437,540.674,538.784,0.0
52584.0,STARLINK-3922,PAYLOAD,2024-06-06 05:01:00,15.08836202,0.0001506,53.2177,118.8376,86.3363,273.7802,3.7825e-05,3.14e-06,0.0,0 STARLINK-3922,1 52584U 22051BA  24158.20903645  .00000314  00000-0  37825-4 0  9990,2 52584  53.2177 118.8376 0001506  86.3363 273.7802 15.08836202114815,6917.892,95.438,540.799,538.715,0.0
52584.0,STARLINK-3922,PAYLOAD,2024-06-06 14:33:18,15.08848463,0.0001507,53.2178,117.0518,85.8748,274.2417,0.00011604,1.56e-05,0.0,0 STARLINK-3922,1 52584U 22051BA  24158.60646596  .00001560  00000-0  11604-3 0  9993,2 52584  53.2178 117.0518 0001507  85.8748 274.2417 15.08848463114806,6917.855,95.437,540.762,538.677,0.0
52584.0,STARLINK-3922,PAYLOAD,2024-06-07 14:24:06,15.08845608,0.0001367,53.2172,112.5959,86.961,273.1538,5.9368e-05,6.57e-06,0.0,0 STARLINK-3922,1 52584U 22051BA  24159.60006974  .00000657  00000-0  59368-4 0  9990,2 52584  53.2172 112.5959 0001367  86.9610 273.1538 15.08845608114959,6917.863,95.437,540.674,538.783,0.0
52584.0,STARLINK-3922,PAYLOAD,2024-06-08 03:07:11,15.08838275,0.0001383,53.219,110.2126,101.6358,258.4789,9.5923e-05,1.239e-05,0.0,0 STARLINK-3922,1 52584U 22051BA  24160.12999421  .00001239  00000-0  95923-4 0  9991,2 52584  53.2190 110.2126 0001383 101.6358 258.4789 15.08838275115106,6917.886,95.438,540.707,538.794,0.0
52584.0,STARLINK-3922,PAYLOAD,2024-06-08 14:14:52,15.08851628,0.0001552,53.2181,108.13,103.1484,256.9682,7.8362e-05,9.6e-06,0.0,0 STARLINK-3922,1 52584U 22051BA  24160.59366388  .00000960  00000-0  78362-4 0  9990,2 52584  53.2181 108.1300 0001552 103.1484 256.9682 15.08851628115103,6917.845,95.437,540.783,538.636,0.0
52584.0,STARLINK-3922,PAYLOAD,2024-06-09 02:57:59,15.08829455,0.0001407,53.2188,105.7558,88.8977,271.2176,8.8892e-05,1.127e-05,0.0,0 STARLINK-3922,1 52584U 22051BA  24161.12360157  .00001127  00000-0  88892-4 0  9993,2 52584  53.2188 105.7558 0001407  88.8977 271.2176 15.08829455115250,6917.913,95.438,540.751,538.804,0.0
52584.0,STARLINK-3922,PAYLOAD,2024-06-09 20:27:13,15.08840683,0.0001599,53.2178,102.4817,98.3366,261.7807,6.5609e-05,7.56e-06,0.0,0 STARLINK-3922,1 52584U 22051BA  24161.85223665  .00000756  00000-0  65609-4 0  9993,2 52584  53.2178 102.4817 0001599  98.3366 261.7807 15.08840683115364,6917.878,95.438,540.849,538.637,0.0
52584.0,STARLINK-3922,PAYLOAD,2024-06-10 02:48:45,15.08841194,0.000155,53.2182,101.2923,97.9148,262.202,8.386e-05,1.047e-05,0.0,0 STARLINK-3922,1 52584U 22051BA  24162.11719714  .00001047  00000-0  83860-4 0  9991,2 52584  53.2182 101.2923 0001550  97.9148 262.2020 15.08841194115400,6917.877,95.437,540.814,538.669,0.0
52584.0,STARLINK-3922,PAYLOAD,2024-06-10 05:59:32,15.08841552,0.00015,53.2185,100.6984,96.6888,263.4275,2.9187e-05,1.77e-06,0.0,0 STARLINK-3922,1 52584U 22051BA  24162.24967720  .00000177  00000-0  29187-4 0  9992,2 52584  53.2185 100.6984 0001500  96.6888 263.4275 15.08841552115420,6917.876,95.437,540.778,538.703,0.0
52584.0,STARLINK-3922,PAYLOAD,2024-06-11 02:39:33,15.08840248,0.0001337,53.2176,96.8362,94.2099,265.9046,0.0001738,2.479e-05,0.0,0 STARLINK-3922,1 52584U 22051BA  24163.11080062  .00002479  00000-0  17380-3 0  9992,2 52584  53.2176  96.8362 0001337  94.2099 265.9046 15.08840248115550,6917.88,95.438,540.67,538.82,0.0
52584.0,STARLINK-3922,PAYLOAD,2024-06-11 12:11:51,15.08851883,0.000134,53.2179,95.0507,93.1673,266.9473,0.00028566,4.263e-05,0.0,0 STARLINK-3922,1 52584U 22051BA  24163.50823413  .00004263  00000-0  28566-3 0  9991,2 52584  53.2179  95.0507 0001340  93.1673 266.9473 15.08851883115546,6917.844,95.437,540.636,538.782,0.0
52584.0,STARLINK-3922,PAYLOAD,2024-06-12 02:30:20,15.08841749,0.0001507,53.2183,92.3779,100.6453,259.4709,0.0001218,1.651e-05,0.0,0 STARLINK-3922,1 52584U 22051BA  24164.10439932  .00001651  00000-0  12180-3 0  9990,2 52584  53.2183  92.3779 0001507 100.6453 259.4709 15.08841749115704,6917.875,95.437,540.783,538.698,0.0
52584.0,STARLINK-3922,PAYLOAD,2024-06-12 05:41:06,15.08847596,0.0001637,53.2187,91.7818,97.1801,262.9377,0.0001909,2.752e-05,0.0,0 STARLINK-3922,1 52584U 22051BA  24164.23687910  .00002752  00000-0  19090-3 0  9995,2 52584  53.2187  91.7818 0001637  97.1801 262.9377 15.08847596115656,6917.857,95.437,540.855,538.59,0.0
52584.0,STARLINK-3922,PAYLOAD,2024-06-12 12:02:38,15.08853179,0.0001517,53.2189,90.5924,92.1828,267.9338,0.00028686,4.282e-05,0.0,0 STARLINK-3922,1 52584U 22051BA  24164.50183354  .00004282  00000-0  28686-3 0  9999,2 52584  53.2189  90.5924 0001517  92.1828 267.9338 15.08853179115762,6917.84,95.437,540.755,538.656,0.0
52584.0,STARLINK-3922,PAYLOAD,2024-06-13 03:56:30,15.08832204,0.0001642,53.2172,87.6156,84.2471,275.8709,-6.1568e-05,-1.268e-05,0.0,0 STARLINK-3922,1 52584U 22051BA  24165.16424448 -.00001268  00000-0 -61568-4 0  9994,2 52584  53.2172  87.6156 0001642  84.2471 275.8709 15.08832204115860,6917.904,95.438,540.905,538.633,0.0
52584.0,STARLINK-3922,PAYLOAD,2024-06-13 11:53:26,15.08840245,0.0001631,53.2167,86.1296,86.0394,274.0785,0.0003764,5.708e-05,0.0,0 STARLINK-3922,1 52584U 22051BA  24165.49544404  .00005708  00000-0  37640-3 0  9999,2 52584  53.2167  86.1296 0001631  86.0394 274.0785 15.08840245115910,6917.88,95.438,540.873,538.616,0.0
52584.0,STARLINK-3922,PAYLOAD,2024-06-14 11:44:13,15.08850515,0.0002012,53.2172,81.6663,86.0339,274.0883,0.00060405,9.341e-05,0.0,0 STARLINK-3922,1 52584U 22051BA  24166.48904584  .00009341  00000-0  60405-3 0  9990,2 52584  53.2172  81.6663 0002012  86.0339 274.0883 15.08850515115995,6917.848,95.437,541.105,538.321,0.0
52584.0,STARLINK-3922,PAYLOAD,2024-06-14 22:51:55,15.08845933,0.0001523,53.2162,79.5877,84.6663,275.4503,0.00032916,4.955e-05,0.0,0 STARLINK-3922,1 52584U 22051BA  24166.95272487  .00004955  00000-0  32916-3 0  9994,2 52584  53.2162  79.5877 0001523  84.6663 275.4503 15.08845933116068,6917.862,95.437,540.781,538.674,0.0
52584.0,STARLINK-3922,PAYLOAD,2024-06-15 11:35:00,15.08857228,0.0001402,53.2165,77.2087,86.3991,273.7162,0.00081478,0.00012709,0.0,0 STARLINK-3922,1 52584U 22051BA  24167.48264042  .00012709  00000-0  81478-3 0  9994,2 52584  53.2165  77.2087 0001402  86.3991 273.7162 15.08857228116217,6917.828,95.436,540.663,538.723,0.0
52584.0,STARLINK-3922,PAYLOAD,2024-06-15 22:42:42,15.08853632,0.0001782,53.2165,75.1233,108.5766,251.5419,0.00078048,0.0001216,0.0,0 STARLINK-3922,1 52584U 22051BA  24167.94632089  .00012160  00000-0  78048-3 0  9995,2 52584  53.2165  75.1233 0001782 108.5766 251.5419 15.08853632116219,6917.839,95.437,540.936,538.471,0.0
